TIANZHOU-10             
1 69049U 26102A   26161.25787489  .00022027  00000+0  26248-3 0  9992
2 69049  41.4694   4.1634 0008406  21.6299 338.4893 15.60521167  4773
QIANFAN-127             
1 69073U 26104A   26160.81418609 -.02109945  00000+0 -12324+1 0  9993
2 69073  88.9851 342.4431 0005679  89.7867 270.3970 14.12713551  4045
QIANFAN-128             
1 69074U 26104B   26160.80732987 -.01953336  00000+0 -11927+1 0  9999
2 69074  88.9860 342.4613 0010325 115.0364 245.1894 14.09943292  4034
QIANFAN-129             
1 69075U 26104C   26160.83271321 -.01965524  00000+0 -10954+1 0  9994
2 69075  88.9853 342.4276 0004153 163.0714 197.0612 14.14973389  4057
QIANFAN-130             
1 69076U 26104D   26160.93545722 -.02116560  00000+0 -13011+1 0  9991
2 69076  88.9856 342.4431 0009985  77.5743 282.6558 14.09909285  4051
QIANFAN-131             
1 69077U 26104E   26160.83175711 -.02087174  00000+0 -12249+1 0  9998
2 69077  88.9850 342.4459 0005811  89.3724 270.8128 14.12408034  4041
QIANFAN-132             
1 69078U 26104F   26161.01907720 -.02080031  00000+0 -13064+1 0  9994
2 69078  88.9841 342.4380 0007316  75.6402 284.5594 14.08665511  4069
QIANFAN-133             
1 69079U 26104G   26160.85963239 -.02148137  00000+0 -13185+1 0  9999
2 69079  88.9854 342.4503 0007082  49.0344 311.1453 14.10071428  4041
QIANFAN-134             
1 69080U 26104H   26160.85460579 -.02179652  00000+0 -13495+1 0  9990
2 69080  88.9842 342.4517 0008446  46.9615 313.2276 14.09652123  4048
QIANFAN-135             
1 69081U 26104J   26160.84719049 -.02110492  00000+0 -12800+1 0  9995
2 69081  88.9869 342.4502 0006667  62.1675 298.0185 14.10654283  4041
QIANFAN-136             
1 69082U 26104K   26160.84152494 -.02071227  00000+0 -12347+1 0  9999
2 69082  88.9852 342.4462 0006888  80.2941 279.9022 14.11518399  4047
QIANFAN-137             
1 69083U 26104L   26161.25499244  .00000103  00000+0  38240-4 0  9998
2 69083  88.9861 342.3779 0005619 125.1098 235.0622 14.24279927  4113
QIANFAN-138             
1 69084U 26104M   26160.82824273  .00000068  00000+0  27915-4 0  9992
2 69084  88.9864 342.4454 0004496 116.5428 243.6220 14.14367134  4049
QIANFAN-139             
1 69085U 26104N   26160.82257473 -.02086196  00000+0 -12376+1 0  9996
2 69085  88.9857 342.4451 0006011  67.2710 292.9110 14.11813985  4042
QIANFAN-140             
1 69086U 26104P   26160.95892679 -.02087241  00000+0 -12435+1 0  9992
2 69086  88.9856 342.4280 0008122  83.7319 276.4792 14.11576115  4061
QIANFAN-141             
1 69087U 26104Q   26160.95334102 -.02071616  00000+0 -12191+1 0  9993
2 69087  88.9854 342.4275 0005643  74.0664 286.1143 14.12225786  4069
QIANFAN-142             
1 69088U 26104R   26160.87612884 -.02085546  00000+0 -12037+1 0  9997
2 69088  88.9850 342.4356 0004957  93.3561 266.8192 14.13313702  4058
QIANFAN-143             
1 69089U 26104S   26160.93226239 -.02136310  00000+0 -12237+1 0  9998
2 69089  88.9854 342.4234 0004937 175.6115 184.5116 14.13832996  4069
QIANFAN-144             
1 69090U 26104T   26161.01094055 -.02213034  00000+0 -12722+1 0  9997
2 69090  88.9857 342.4168 0003705 136.5290 223.6189 14.13797474  4079
ZHUQUE-2E R/B           
1 69095U 26105A   26161.20495167  .00157713 -66916-6  38596-3 0  9996
2 69095  88.9716 195.2192 0454797 325.1328  32.0872 15.15494636  4098
2026-106A               
1 69097U 26106A   26155.63137572  .00009052  00000+0  54389-3 0  9996
2 69097  97.5095 237.9435 0013466 203.5034 156.5582 15.11037132  3085
2026-106B               
1 69098U 26106B   26155.63675397  .00006796  00000+0  42602-3 0  9996
2 69098  97.5082 237.9319 0014266 199.5733 160.4950 15.09575067  3086
2026-106C               
1 69099U 26106C   26155.63084001  .00008876  00000+0  53278-3 0  9995
2 69099  97.5097 237.9445 0013554 204.3760 155.6830 15.11076088  3082
2026-106D               
1 69100U 26106D   26155.62912235  .00008260  00000+0  49447-3 0  9996
2 69100  97.5062 237.9411 0013122 207.0214 153.0334 15.11202473  3085
2026-106E               
1 69101U 26106E   26155.62529263  .00009128  00000+0  54175-3 0  9990
2 69101  97.5073 237.9468 0015124 208.9127 151.1267 15.11460406  3083
DRAGON CRS-34           
1 69103U 26107A   26161.15832933  .00007673  00000+0  14376-3 0  9991
2 69103  51.6328 334.8807 0006746 152.8443 207.2900 15.49693861570766
QIANFAN-145             
1 69104U 26108A   26160.85243013 -.02094358  00000+0 -12544+1 0  9996
2 69104  89.0113  23.0371 0013446 120.8811 239.3699 14.11270867  3303
QIANFAN-146             
1 69105U 26108B   26160.91368079 -.01930855  00000+0 -10618+1 0  9994
2 69105  89.0111  23.0109 0016033 149.1294 211.0840 14.15558624  3326
